{
    "links": {
        "self": "http://www.neowsapp.com/rest/v1/neo/3407682?api_key=iIulBulltgU6a56xZRHN4H3l9WmuAYTsLGpBGhQ2"
    },
    "id": "3407682",
    "neo_reference_id": "3407682",
    "name": "(2008 FY6)",
    "designation": "2008 FY6",
    "nasa_jpl_url": "http://ssd.jpl.nasa.gov/sbdb.cgi?sstr=3407682",
    "absolute_magnitude_h": 20.3,
    "estimated_diameter": {
        "kilometers": {
            "estimated_diameter_min": 0.2315021222,
            "estimated_diameter_max": 0.5176544822
        },
        "meters": {
            "estimated_diameter_min": 231.5021222103,
            "estimated_diameter_max": 517.6544821978
        },
        "miles": {
            "estimated_diameter_min": 0.1438487052,
            "estimated_diameter_max": 0.3216554833
        },
        "feet": {
            "estimated_diameter_min": 759.5214226325,
            "estimated_diameter_max": 1698.3415313737
        }
    },
    "is_potentially_hazardous_asteroid": false,
    "close_approach_data": [
        {
            "close_approach_date": "1985-11-20",
            "close_approach_date_full": "1985-Nov-20 01:53",
            "epoch_date_close_approach": 501299580000,
            "relative_velocity": {
                "kilometers_per_second": "12.4014144155",
                "kilometers_per_hour": "44645.0918959134",
                "miles_per_hour": "27740.7239061024"
            },
            "miss_distance": {
                "astronomical": "0.4754753593",
                "lunar": "184.9599147677",
                "kilometers": "71130100.988764691",
                "miles": "44198195.2568710958"
            },
            "orbiting_body": "Earth"
        },
        {
            "close_approach_date": "1986-03-11",
            "close_approach_date_full": "1986-Mar-11 17:18",
            "epoch_date_close_approach": 510945480000,
            "relative_velocity": {
                "kilometers_per_second": "14.5899228796",
                "kilometers_per_hour": "52523.7223666702",
                "miles_per_hour": "32636.1984894457"
            },
            "miss_distance": {
                "astronomical": "0.3093245976",
                "lunar": "120.3272684664",
                "kilometers": "46274300.939567112",
                "miles": "28753517.2855336656"
            },
            "orbiting_body": "Earth"
        },
        {
            "close_approach_date": "2008-03-12",
            "close_approach_date_full": "2008-Mar-12 10:14",
            "epoch_date_close_approach": 1205316840000,
            "relative_velocity": {
                "kilometers_per_second": "13.5711972297",
                "kilometers_per_hour": "48856.310026749",
                "miles_per_hour": "30357.4110830097"
            },
            "miss_distance": {
                "astronomical": "0.3177597494",
                "lunar": "123.6085425166",
                "kilometers": "47536181.681973778",
                "miles": "29537613.6198350164"
            },
            "orbiting_body": "Earth"
        },
        {
            "close_approach_date": "2030-03-15",
            "close_approach_date_full": "2030-Mar-15 08:32",
            "epoch_date_close_approach": 1899793920000,
            "relative_velocity": {
                "kilometers_per_second": "13.0523370666",
                "kilometers_per_hour": "46988.4134395883",
                "miles_per_hour": "29196.7727841708"
            },
            "miss_distance": {
                "astronomical": "0.3678141755",
                "lunar": "143.0797142695",
                "kilometers": "55024217.210606185",
                "miles": "34190463.141827953"
            },
            "orbiting_body": "Earth"
        }
    ],
    "orbital_data": {
        "orbit_id": "12",
        "orbit_determination_date": "2017-04-06 09:03:52",
        "first_observation_date": "2008-03-30",
        "last_observation_date": "2008-04-24",
        "data_arc_in_days": 25,
        "observations_used": 46,
        "orbit_uncertainty": "6",
        "minimum_orbit_intersection": ".305605",
        "jupiter_tisserand_invariant": "3.852",
        "epoch_osculation": "2459000.5",
        "eccentricity": ".3873971117354603",
        "semi_major_axis": "1.813260043936888",
        "inclination": "25.5509825897084",
        "ascending_node_longitude": "10.10442179158497",
        "orbital_period": "891.8433215765275",
        "perihelion_distance": "1.110808340090424",
        "perihelion_argument": "106.6922818620219",
        "aphelion_distance": "2.515711747783351",
        "perihelion_time": "2458934.273689932848",
        "mean_anomaly": "26.73280277754354",
        "mean_motion": ".4036583459117253",
        "equinox": "J2000",
        "orbit_class": {
            "orbit_class_type": "AMO",
            "orbit_class_description": "Near-Earth asteroid orbits similar to that of 1221 Amor",
            "orbit_class_range": "1.017 AU < q (perihelion) < 1.3 AU"
        }
    },
    "is_sentry_object": false
}